<?xml version="1.0" encoding="UTF-8"?>
<gpx version="1.1" creator="tomtom-scenic-route" xmlns="http://www.topografix.com/GPX/1/1">
  <metadata><name>Argoat — Guerlédan &amp; gorges du Daoulas — 1. matin</name></metadata>
  <rte>
    <name>Argoat — Guerlédan &amp; gorges du Daoulas — 1. matin</name>
    <rtept lat="48.5409784" lon="-2.4330858"><name>01 DEPART - Henansal</name><desc>km 0 · 9h00 · réservoir plein la veille</desc></rtept>
    <rtept lat="48.53784" lon="-2.43451"></rtept>
    <rtept lat="48.52496" lon="-2.44308"></rtept>
    <rtept lat="48.51214" lon="-2.451"></rtept>
    <rtept lat="48.49612" lon="-2.47296"></rtept>
    <rtept lat="48.48175" lon="-2.49462"></rtept>
    <rtept lat="48.47929" lon="-2.49996"></rtept>
    <rtept lat="48.47873" lon="-2.50092"></rtept>
    <rtept lat="48.47848" lon="-2.50303"></rtept>
    <rtept lat="48.47549" lon="-2.51019"></rtept>
    <rtept lat="48.46655" lon="-2.51761"></rtept>
    <rtept lat="48.46603" lon="-2.51771"></rtept>
    <rtept lat="48.46162" lon="-2.52483"></rtept>
    <rtept lat="48.45904" lon="-2.53182"></rtept>
    <rtept lat="48.45031" lon="-2.54761"></rtept>
    <rtept lat="48.44666" lon="-2.55212"></rtept>
    <rtept lat="48.44474" lon="-2.55221"></rtept>
    <rtept lat="48.42609" lon="-2.56574"></rtept>
    <rtept lat="48.40708" lon="-2.57762"></rtept>
    <rtept lat="48.3891" lon="-2.59366"></rtept>
    <rtept lat="48.37561" lon="-2.61377"></rtept>
    <rtept lat="48.36142" lon="-2.63124"></rtept>
    <rtept lat="48.36132" lon="-2.63321"></rtept>
    <rtept lat="48.36058" lon="-2.63417"></rtept>
    <rtept lat="48.36033" lon="-2.63269"></rtept>
    <rtept lat="48.3604" lon="-2.63212"></rtept>
    <rtept lat="48.36201" lon="-2.62858"></rtept>
    <rtept lat="48.36215" lon="-2.621"></rtept>
    <rtept lat="48.35939" lon="-2.61814"></rtept>
    <rtept lat="48.35851" lon="-2.61603"></rtept>
    <rtept lat="48.35669" lon="-2.59364"></rtept>
    <rtept lat="48.3559" lon="-2.57007"></rtept>
    <rtept lat="48.3506" lon="-2.5498"><name>02 Mont Bel-Air</name><desc>km 34 · 9h43 · arrêt 25 min · panorama 339 m, aucun commerce</desc></rtept>
    <rtept lat="48.33815" lon="-2.55373"></rtept>
    <rtept lat="48.33072" lon="-2.56364"></rtept>
    <rtept lat="48.32969" lon="-2.5663"></rtept>
    <rtept lat="48.3288" lon="-2.56682"></rtept>
    <rtept lat="48.32791" lon="-2.56941"></rtept>
    <rtept lat="48.32368" lon="-2.57961"></rtept>
    <rtept lat="48.32344" lon="-2.58651"></rtept>
    <rtept lat="48.32344" lon="-2.58651"></rtept>
    <rtept lat="48.32312" lon="-2.58914"></rtept>
    <rtept lat="48.32235" lon="-2.58937"></rtept>
    <rtept lat="48.31665" lon="-2.61807"></rtept>
    <rtept lat="48.32546" lon="-2.63647"></rtept>
    <rtept lat="48.32875" lon="-2.66151"></rtept>
    <rtept lat="48.3358" lon="-2.68321"></rtept>
    <rtept lat="48.33622" lon="-2.68501"></rtept>
    <rtept lat="48.33579" lon="-2.6878"></rtept>
    <rtept lat="48.32288" lon="-2.71355"></rtept>
    <rtept lat="48.3115" lon="-2.73929"></rtept>
    <rtept lat="48.30202" lon="-2.76706"></rtept>
    <rtept lat="48.29484" lon="-2.79637"></rtept>
    <rtept lat="48.28085" lon="-2.81868"></rtept>
    <rtept lat="48.27933" lon="-2.8307"></rtept>
    <rtept lat="48.26776" lon="-2.85519"></rtept>
    <rtept lat="48.25579" lon="-2.87277"></rtept>
    <rtept lat="48.24112" lon="-2.88237"></rtept>
    <rtept lat="48.24066" lon="-2.88241"></rtept>
    <rtept lat="48.24056" lon="-2.88385"></rtept>
    <rtept lat="48.24106" lon="-2.88395"></rtept>
    <rtept lat="48.24164" lon="-2.88493"></rtept>
    <rtept lat="48.24294" lon="-2.88711"></rtept>
    <rtept lat="48.25339" lon="-2.90201"></rtept>
    <rtept lat="48.26506" lon="-2.90552"></rtept>
    <rtept lat="48.2663" lon="-2.9051"></rtept>
    <rtept lat="48.27755" lon="-2.90204"></rtept>
    <rtept lat="48.2892" lon="-2.91977"></rtept>
    <rtept lat="48.29953" lon="-2.91044"></rtept>
    <rtept lat="48.30045" lon="-2.90595"></rtept>
    <rtept lat="48.3002" lon="-2.9012"><name>03 Cascade de Bosmeleac</name><desc>km 79 · 11h01 · arrêt 25 min · lac, barrage et aqueduc, aucun commerce</desc></rtept>
    <rtept lat="48.30109" lon="-2.90059"></rtept>
    <rtept lat="48.30169" lon="-2.8993"></rtept>
    <rtept lat="48.30149" lon="-2.89774"></rtept>
    <rtept lat="48.29958" lon="-2.89963"></rtept>
    <rtept lat="48.30339" lon="-2.90996"></rtept>
    <rtept lat="48.30613" lon="-2.91215"></rtept>
    <rtept lat="48.31469" lon="-2.92377"></rtept>
    <rtept lat="48.32178" lon="-2.9365"></rtept>
    <rtept lat="48.31679" lon="-2.9544"></rtept>
    <rtept lat="48.30724" lon="-2.95712"></rtept>
    <rtept lat="48.30839" lon="-2.98828"></rtept>
    <rtept lat="48.29316" lon="-3.00102"></rtept>
    <rtept lat="48.29268" lon="-3.00146"></rtept>
    <rtept lat="48.28007" lon="-3.00694"></rtept>
    <rtept lat="48.27945" lon="-3.00883"></rtept>
    <rtept lat="48.27233" lon="-3.01335"></rtept>
    <rtept lat="48.25454" lon="-3.00721"></rtept>
    <rtept lat="48.25495" lon="-3.00805"></rtept>
    <rtept lat="48.25498" lon="-3.00815"></rtept>
    <rtept lat="48.25302" lon="-3.01025"></rtept>
    <rtept lat="48.25213" lon="-3.01242"></rtept>
    <rtept lat="48.23886" lon="-3.03506"></rtept>
    <rtept lat="48.23373" lon="-3.03753"></rtept>
    <rtept lat="48.2234" lon="-3.03645"></rtept>
    <rtept lat="48.21437" lon="-3.04611"></rtept>
    <rtept lat="48.21384" lon="-3.04613"></rtept>
    <rtept lat="48.20593" lon="-3.04854"><name>04 DEJEUNER - L'Embarcadere</name><desc>km 105 · 12h11 · 1h15 · Beau Rivage, Caurel · 02 96 28 52 64 · samedi 9h-minuit, service continu</desc></rtept>
  </rte>
</gpx>
