<?xml version="1.0" encoding="UTF-8"?>
<gpx version="1.1" creator="tomtom-scenic-route" xmlns="http://www.topografix.com/GPX/1/1">
  <metadata><name>Argoat — Guerlédan &amp; gorges du Daoulas</name></metadata>
  <wpt lat="48.5409784" lon="-2.4330858"><name>01 DEPART - Henansal</name><desc>km 0 · 9h00 · réservoir plein la veille</desc><cmt>km 0 · 9h00 · réservoir plein la veille</cmt><sym>Flag, Green</sym><type>stop</type></wpt>
  <wpt lat="48.3506" lon="-2.5498"><name>02 Mont Bel-Air</name><desc>km 34 · 9h43 · arrêt 25 min · panorama 339 m, aucun commerce</desc><cmt>km 34 · 9h43 · arrêt 25 min · panorama 339 m, aucun commerce</cmt><sym>Summit</sym><type>stop</type></wpt>
  <wpt lat="48.3002" lon="-2.9012"><name>03 Cascade de Bosmeleac</name><desc>km 79 · 11h01 · arrêt 25 min · lac, barrage et aqueduc, aucun commerce</desc><cmt>km 79 · 11h01 · arrêt 25 min · lac, barrage et aqueduc, aucun commerce</cmt><sym>Scenic Area</sym><type>stop</type></wpt>
  <wpt lat="48.2118" lon="-3.0499"><name>04 option RESTO - Betty Food snack</name><desc>km 104 · Caurel · snack · samedi 11h-23h</desc><cmt>km 104 · Caurel · snack · samedi 11h-23h</cmt><sym>Fast Food</sym><type>food</type></wpt>
  <wpt lat="48.20593" lon="-3.04854"><name>04 DEJEUNER - L'Embarcadere</name><desc>km 105 · 12h11 · 1h15 · Beau Rivage, Caurel · 02 96 28 52 64 · samedi 9h-minuit, service continu</desc><cmt>km 105 · 12h11 · 1h15 · Beau Rivage, Caurel · 02 96 28 52 64 · samedi 9h-minuit, service continu</cmt><sym>Restaurant</sym><type>lunch</type></wpt>
  <wpt lat="48.2163" lon="-3.03703"><name>04 option RESTO - Cap Tain Cook</name><desc>km 110 · Caurel · samedi 9h-22h · 02 96 67 11 00</desc><cmt>km 110 · Caurel · samedi 9h-22h · 02 96 67 11 00</cmt><sym>Restaurant</sym><type>food</type></wpt>
  <wpt lat="48.1985" lon="-2.9871"><name>04 PLEIN - Intermarche Mur-de-Bretagne</name><desc>km 114 · samedi 9h-19h, ouvert 7j/7 · 980 m du tracé, crochet de 2 km A/R</desc><cmt>km 114 · samedi 9h-19h, ouvert 7j/7 · 980 m du tracé, crochet de 2 km A/R</cmt><sym>Gas Station</sym><type>fuel</type></wpt>
  <wpt lat="48.1996" lon="-3.1268"><name>05 Forges des Salles</name><desc>km 132 · 14h17 · arrêt 40 min · village-usine du XVIIIe · samedi 14h-18h · 07 83 14 70 63</desc><cmt>km 132 · 14h17 · arrêt 40 min · village-usine du XVIIIe · samedi 14h-18h · 07 83 14 70 63</cmt><sym>Museum</sym><type>stop</type></wpt>
  <wpt lat="48.2128" lon="-3.1282"><name>06 Abbaye de Bon-Repos</name><desc>km 136 · 15h07 · arrêt 20 min · ruines · Café de l'Abbaye 10h-19h 7j/7 · visite peut-être fermée le samedi, 02 96 24 82 20</desc><cmt>km 136 · 15h07 · arrêt 20 min · ruines · Café de l'Abbaye 10h-19h 7j/7 · visite peut-être fermée le samedi, 02 96 24 82 20</cmt><sym>Church</sym><type>stop</type></wpt>
  <wpt lat="48.4081" lon="-2.9187"><name>07 PLEIN secours - Systeme U Quintin</name><desc>km 177 · samedi 9h-22h · à éviter : Bon-Repos ferme à 12h le samedi, Corlay est fermé</desc><cmt>km 177 · samedi 9h-22h · à éviter : Bon-Repos ferme à 12h le samedi, Corlay est fermé</cmt><sym>Gas Station</sym><type>fuel</type></wpt>
  <wpt lat="48.4033" lon="-2.91"><name>07 Quintin</name><desc>km 178 · 16h28 · arrêt 40 min · cité de caractère · station U de repli à 545 m</desc><cmt>km 178 · 16h28 · arrêt 40 min · cité de caractère · station U de repli à 545 m</cmt><sym>City (Small)</sym><type>stop</type></wpt>
  <wpt lat="48.5409784" lon="-2.4330858"><name>08 ARRIVEE - Henansal</name><desc>km 228 · 18h09 · 229 km, 5h23 de roulage</desc><cmt>km 228 · 18h09 · 229 km, 5h23 de roulage</cmt><sym>Flag, Red</sym><type>stop</type></wpt>
  <rte>
    <name>Argoat — Guerlédan &amp; gorges du Daoulas (itinéraire)</name>
    <rtept lat="48.54098" lon="-2.43309"></rtept>
    <rtept lat="48.52496" lon="-2.44308"></rtept>
    <rtept lat="48.51214" lon="-2.451"></rtept>
    <rtept lat="48.49612" lon="-2.47296"></rtept>
    <rtept lat="48.48175" lon="-2.49462"></rtept>
    <rtept lat="48.47549" lon="-2.51019"></rtept>
    <rtept lat="48.46655" lon="-2.51761"></rtept>
    <rtept lat="48.45904" lon="-2.53182"></rtept>
    <rtept lat="48.44474" lon="-2.55221"></rtept>
    <rtept lat="48.42609" lon="-2.56574"></rtept>
    <rtept lat="48.40708" lon="-2.57762"></rtept>
    <rtept lat="48.3891" lon="-2.59366"></rtept>
    <rtept lat="48.37561" lon="-2.61377"></rtept>
    <rtept lat="48.36142" lon="-2.63124"></rtept>
    <rtept lat="48.35851" lon="-2.61603"></rtept>
    <rtept lat="48.35669" lon="-2.59364"></rtept>
    <rtept lat="48.3559" lon="-2.57007"></rtept>
    <rtept lat="48.35342" lon="-2.54946"></rtept>
    <rtept lat="48.33815" lon="-2.55373"></rtept>
    <rtept lat="48.33072" lon="-2.56364"></rtept>
    <rtept lat="48.32368" lon="-2.57961"></rtept>
    <rtept lat="48.32235" lon="-2.58937"></rtept>
    <rtept lat="48.31665" lon="-2.61807"></rtept>
    <rtept lat="48.32546" lon="-2.63647"></rtept>
    <rtept lat="48.32875" lon="-2.66151"></rtept>
    <rtept lat="48.33579" lon="-2.6878"></rtept>
    <rtept lat="48.32288" lon="-2.71355"></rtept>
    <rtept lat="48.3115" lon="-2.73929"></rtept>
    <rtept lat="48.30202" lon="-2.76706"></rtept>
    <rtept lat="48.29484" lon="-2.79637"></rtept>
    <rtept lat="48.28085" lon="-2.81868"></rtept>
    <rtept lat="48.27933" lon="-2.8307"></rtept>
    <rtept lat="48.26776" lon="-2.85519"></rtept>
    <rtept lat="48.25579" lon="-2.87277"></rtept>
    <rtept lat="48.24112" lon="-2.88237"></rtept>
    <rtept lat="48.25339" lon="-2.90201"></rtept>
    <rtept lat="48.26506" lon="-2.90552"></rtept>
    <rtept lat="48.27755" lon="-2.90204"></rtept>
    <rtept lat="48.2892" lon="-2.91977"></rtept>
    <rtept lat="48.29953" lon="-2.91044"></rtept>
    <rtept lat="48.29958" lon="-2.89963"></rtept>
    <rtept lat="48.30613" lon="-2.91215"></rtept>
    <rtept lat="48.31469" lon="-2.92377"></rtept>
    <rtept lat="48.32178" lon="-2.9365"></rtept>
    <rtept lat="48.31679" lon="-2.9544"></rtept>
    <rtept lat="48.30724" lon="-2.95712"></rtept>
    <rtept lat="48.30839" lon="-2.98828"></rtept>
    <rtept lat="48.29316" lon="-3.00102"></rtept>
    <rtept lat="48.28007" lon="-3.00694"></rtept>
    <rtept lat="48.27233" lon="-3.01335"></rtept>
    <rtept lat="48.25454" lon="-3.00721"></rtept>
    <rtept lat="48.25213" lon="-3.01242"></rtept>
    <rtept lat="48.23886" lon="-3.03506"></rtept>
    <rtept lat="48.2234" lon="-3.03645"></rtept>
    <rtept lat="48.2133" lon="-3.0498"></rtept>
    <rtept lat="48.20771" lon="-3.05279"></rtept>
    <rtept lat="48.21798" lon="-3.06166"></rtept>
    <rtept lat="48.21549" lon="-3.03019"></rtept>
    <rtept lat="48.20994" lon="-3.01025"></rtept>
    <rtept lat="48.20058" lon="-3.00047"></rtept>
    <rtept lat="48.18865" lon="-3.01291"></rtept>
    <rtept lat="48.18762" lon="-3.01341"></rtept>
    <rtept lat="48.17593" lon="-3.00864"></rtept>
    <rtept lat="48.18124" lon="-3.01767"></rtept>
    <rtept lat="48.18474" lon="-3.04058"></rtept>
    <rtept lat="48.19382" lon="-3.05743"></rtept>
    <rtept lat="48.19537" lon="-3.07474"></rtept>
    <rtept lat="48.20042" lon="-3.0696"></rtept>
    <rtept lat="48.19389" lon="-3.08173"></rtept>
    <rtept lat="48.19537" lon="-3.1029"></rtept>
    <rtept lat="48.19993" lon="-3.12301"></rtept>
    <rtept lat="48.20253" lon="-3.1291"></rtept>
    <rtept lat="48.20742" lon="-3.13997"></rtept>
    <rtept lat="48.21724" lon="-3.12412"></rtept>
    <rtept lat="48.22512" lon="-3.11334"></rtept>
    <rtept lat="48.22925" lon="-3.12307"></rtept>
    <rtept lat="48.24443" lon="-3.12594"></rtept>
    <rtept lat="48.25538" lon="-3.13678"></rtept>
    <rtept lat="48.25775" lon="-3.15489"></rtept>
    <rtept lat="48.27487" lon="-3.15695"></rtept>
    <rtept lat="48.29209" lon="-3.15918"></rtept>
    <rtept lat="48.30932" lon="-3.16268"></rtept>
    <rtept lat="48.31528" lon="-3.14039"></rtept>
    <rtept lat="48.31594" lon="-3.11057"></rtept>
    <rtept lat="48.32121" lon="-3.07982"></rtept>
    <rtept lat="48.32185" lon="-3.05703"></rtept>
    <rtept lat="48.32905" lon="-3.05112"></rtept>
    <rtept lat="48.34939" lon="-3.04717"></rtept>
    <rtept lat="48.36738" lon="-3.03789"></rtept>
    <rtept lat="48.38442" lon="-3.02187"></rtept>
    <rtept lat="48.38934" lon="-2.9934"></rtept>
    <rtept lat="48.39064" lon="-2.96332"></rtept>
    <rtept lat="48.3985" lon="-2.93455"></rtept>
    <rtept lat="48.40333" lon="-2.91012"></rtept>
    <rtept lat="48.40932" lon="-2.90626"></rtept>
    <rtept lat="48.41882" lon="-2.89412"></rtept>
    <rtept lat="48.41312" lon="-2.86726"></rtept>
    <rtept lat="48.40827" lon="-2.83821"></rtept>
    <rtept lat="48.40667" lon="-2.81079"></rtept>
    <rtept lat="48.40243" lon="-2.78474"></rtept>
    <rtept lat="48.40531" lon="-2.76278"></rtept>
    <rtept lat="48.40288" lon="-2.7392"></rtept>
    <rtept lat="48.39997" lon="-2.72424"></rtept>
    <rtept lat="48.41027" lon="-2.70358"></rtept>
    <rtept lat="48.41712" lon="-2.67811"></rtept>
    <rtept lat="48.41935" lon="-2.64846"></rtept>
    <rtept lat="48.425" lon="-2.62356"></rtept>
    <rtept lat="48.43428" lon="-2.6012"></rtept>
    <rtept lat="48.43955" lon="-2.58077"></rtept>
    <rtept lat="48.44647" lon="-2.56253"></rtept>
    <rtept lat="48.45125" lon="-2.5565"></rtept>
    <rtept lat="48.46307" lon="-2.5562"></rtept>
    <rtept lat="48.47085" lon="-2.53887"></rtept>
    <rtept lat="48.47566" lon="-2.52283"></rtept>
    <rtept lat="48.48424" lon="-2.5092"></rtept>
    <rtept lat="48.49994" lon="-2.49445"></rtept>
    <rtept lat="48.51778" lon="-2.48647"></rtept>
    <rtept lat="48.53367" lon="-2.47365"></rtept>
    <rtept lat="48.54463" lon="-2.45776"></rtept>
    <rtept lat="48.54098" lon="-2.43309"></rtept>
  </rte>
  <trk>
    <name>Argoat — Guerlédan &amp; gorges du Daoulas (trace)</name>
    <trkseg>
      <trkpt lat="48.54098" lon="-2.43309"></trkpt>
      <trkpt lat="48.54046" lon="-2.43355"></trkpt>
      <trkpt lat="48.53871" lon="-2.43394"></trkpt>
      <trkpt lat="48.53439" lon="-2.43616"></trkpt>
      <trkpt lat="48.53246" lon="-2.43768"></trkpt>
      <trkpt lat="48.53155" lon="-2.43876"></trkpt>
      <trkpt lat="48.52935" lon="-2.44043"></trkpt>
      <trkpt lat="48.52551" lon="-2.44254"></trkpt>
      <trkpt lat="48.5234" lon="-2.44528"></trkpt>
      <trkpt lat="48.52251" lon="-2.44607"></trkpt>
      <trkpt lat="48.52013" lon="-2.44706"></trkpt>
      <trkpt lat="48.51766" lon="-2.44863"></trkpt>
      <trkpt lat="48.51628" lon="-2.44892"></trkpt>
      <trkpt lat="48.51542" lon="-2.44882"></trkpt>
      <trkpt lat="48.51401" lon="-2.44979"></trkpt>
      <trkpt lat="48.51313" lon="-2.45005"></trkpt>
      <trkpt lat="48.5061" lon="-2.45651"></trkpt>
      <trkpt lat="48.50305" lon="-2.46154"></trkpt>
      <trkpt lat="48.50211" lon="-2.46422"></trkpt>
      <trkpt lat="48.50048" lon="-2.46737"></trkpt>
      <trkpt lat="48.49739" lon="-2.47059"></trkpt>
      <trkpt lat="48.49495" lon="-2.47521"></trkpt>
      <trkpt lat="48.49197" lon="-2.48013"></trkpt>
      <trkpt lat="48.49039" lon="-2.48224"></trkpt>
      <trkpt lat="48.48731" lon="-2.48529"></trkpt>
      <trkpt lat="48.48531" lon="-2.48889"></trkpt>
      <trkpt lat="48.48345" lon="-2.49115"></trkpt>
      <trkpt lat="48.48288" lon="-2.49228"></trkpt>
      <trkpt lat="48.4826" lon="-2.49334"></trkpt>
      <trkpt lat="48.48175" lon="-2.49462"></trkpt>
      <trkpt lat="48.48011" lon="-2.49801"></trkpt>
      <trkpt lat="48.47993" lon="-2.49942"></trkpt>
      <trkpt lat="48.47951" lon="-2.49957"></trkpt>
      <trkpt lat="48.47863" lon="-2.50101"></trkpt>
      <trkpt lat="48.47842" lon="-2.50203"></trkpt>
      <trkpt lat="48.47844" lon="-2.5043"></trkpt>
      <trkpt lat="48.47746" lon="-2.50599"></trkpt>
      <trkpt lat="48.47634" lon="-2.50914"></trkpt>
      <trkpt lat="48.47434" lon="-2.51188"></trkpt>
      <trkpt lat="48.4735" lon="-2.51349"></trkpt>
      <trkpt lat="48.47299" lon="-2.51417"></trkpt>
      <trkpt lat="48.47187" lon="-2.51497"></trkpt>
      <trkpt lat="48.47116" lon="-2.5162"></trkpt>
      <trkpt lat="48.47047" lon="-2.51676"></trkpt>
      <trkpt lat="48.46979" lon="-2.51684"></trkpt>
      <trkpt lat="48.4675" lon="-2.51814"></trkpt>
      <trkpt lat="48.46745" lon="-2.5177"></trkpt>
      <trkpt lat="48.46714" lon="-2.51762"></trkpt>
      <trkpt lat="48.46567" lon="-2.51781"></trkpt>
      <trkpt lat="48.4652" lon="-2.51848"></trkpt>
      <trkpt lat="48.46464" lon="-2.51952"></trkpt>
      <trkpt lat="48.46429" lon="-2.52126"></trkpt>
      <trkpt lat="48.46327" lon="-2.523"></trkpt>
      <trkpt lat="48.46263" lon="-2.52353"></trkpt>
      <trkpt lat="48.46132" lon="-2.52537"></trkpt>
      <trkpt lat="48.46001" lon="-2.52957"></trkpt>
      <trkpt lat="48.4598" lon="-2.53101"></trkpt>
      <trkpt lat="48.45957" lon="-2.53099"></trkpt>
      <trkpt lat="48.459" lon="-2.53187"></trkpt>
      <trkpt lat="48.45624" lon="-2.53487"></trkpt>
      <trkpt lat="48.45499" lon="-2.53696"></trkpt>
      <trkpt lat="48.45313" lon="-2.53915"></trkpt>
      <trkpt lat="48.45241" lon="-2.54048"></trkpt>
      <trkpt lat="48.45089" lon="-2.54508"></trkpt>
      <trkpt lat="48.4507" lon="-2.54676"></trkpt>
      <trkpt lat="48.44958" lon="-2.54989"></trkpt>
      <trkpt lat="48.44876" lon="-2.55134"></trkpt>
      <trkpt lat="48.44803" lon="-2.55375"></trkpt>
      <trkpt lat="48.44737" lon="-2.55324"></trkpt>
      <trkpt lat="48.44589" lon="-2.55062"></trkpt>
      <trkpt lat="48.44248" lon="-2.55476"></trkpt>
      <trkpt lat="48.43858" lon="-2.55604"></trkpt>
      <trkpt lat="48.43106" lon="-2.5606"></trkpt>
      <trkpt lat="48.42917" lon="-2.56233"></trkpt>
      <trkpt lat="48.42571" lon="-2.56617"></trkpt>
      <trkpt lat="48.4236" lon="-2.56764"></trkpt>
      <trkpt lat="48.42215" lon="-2.56808"></trkpt>
      <trkpt lat="48.41957" lon="-2.57105"></trkpt>
      <trkpt lat="48.41748" lon="-2.57197"></trkpt>
      <trkpt lat="48.41586" lon="-2.57327"></trkpt>
      <trkpt lat="48.41388" lon="-2.57412"></trkpt>
      <trkpt lat="48.41149" lon="-2.57409"></trkpt>
      <trkpt lat="48.40992" lon="-2.57492"></trkpt>
      <trkpt lat="48.40708" lon="-2.57762"></trkpt>
      <trkpt lat="48.4028" lon="-2.58437"></trkpt>
      <trkpt lat="48.39943" lon="-2.58817"></trkpt>
      <trkpt lat="48.39371" lon="-2.59097"></trkpt>
      <trkpt lat="48.38846" lon="-2.59415"></trkpt>
      <trkpt lat="48.38427" lon="-2.60119"></trkpt>
      <trkpt lat="48.37979" lon="-2.60451"></trkpt>
      <trkpt lat="48.37923" lon="-2.60515"></trkpt>
      <trkpt lat="48.37754" lon="-2.60907"></trkpt>
      <trkpt lat="48.37655" lon="-2.6122"></trkpt>
      <trkpt lat="48.37596" lon="-2.61333"></trkpt>
      <trkpt lat="48.37018" lon="-2.61873"></trkpt>
      <trkpt lat="48.36924" lon="-2.62063"></trkpt>
      <trkpt lat="48.36885" lon="-2.6235"></trkpt>
      <trkpt lat="48.36699" lon="-2.62476"></trkpt>
      <trkpt lat="48.36241" lon="-2.62958"></trkpt>
      <trkpt lat="48.36221" lon="-2.6316"></trkpt>
      <trkpt lat="48.36205" lon="-2.63164"></trkpt>
      <trkpt lat="48.36191" lon="-2.63077"></trkpt>
      <trkpt lat="48.36105" lon="-2.63156"></trkpt>
      <trkpt lat="48.36108" lon="-2.63262"></trkpt>
      <trkpt lat="48.36151" lon="-2.63278"></trkpt>
      <trkpt lat="48.36081" lon="-2.63418"></trkpt>
      <trkpt lat="48.36037" lon="-2.63424"></trkpt>
      <trkpt lat="48.36023" lon="-2.63334"></trkpt>
      <trkpt lat="48.36065" lon="-2.63102"></trkpt>
      <trkpt lat="48.36158" lon="-2.63056"></trkpt>
      <trkpt lat="48.36149" lon="-2.62995"></trkpt>
      <trkpt lat="48.36165" lon="-2.62913"></trkpt>
      <trkpt lat="48.36242" lon="-2.62791"></trkpt>
      <trkpt lat="48.36351" lon="-2.62377"></trkpt>
      <trkpt lat="48.36364" lon="-2.6224"></trkpt>
      <trkpt lat="48.36273" lon="-2.62171"></trkpt>
      <trkpt lat="48.36168" lon="-2.62034"></trkpt>
      <trkpt lat="48.36103" lon="-2.61923"></trkpt>
      <trkpt lat="48.36083" lon="-2.61827"></trkpt>
      <trkpt lat="48.35957" lon="-2.61808"></trkpt>
      <trkpt lat="48.35854" lon="-2.6186"></trkpt>
      <trkpt lat="48.35864" lon="-2.61704"></trkpt>
      <trkpt lat="48.35851" lon="-2.61603"></trkpt>
      <trkpt lat="48.35654" lon="-2.60861"></trkpt>
      <trkpt lat="48.35644" lon="-2.60628"></trkpt>
      <trkpt lat="48.35672" lon="-2.60394"></trkpt>
      <trkpt lat="48.35593" lon="-2.60284"></trkpt>
      <trkpt lat="48.35542" lon="-2.6008"></trkpt>
      <trkpt lat="48.35561" lon="-2.5975"></trkpt>
      <trkpt lat="48.35613" lon="-2.5951"></trkpt>
      <trkpt lat="48.35687" lon="-2.593"></trkpt>
      <trkpt lat="48.35687" lon="-2.59088"></trkpt>
      <trkpt lat="48.35651" lon="-2.58804"></trkpt>
      <trkpt lat="48.35475" lon="-2.58135"></trkpt>
      <trkpt lat="48.35421" lon="-2.57681"></trkpt>
      <trkpt lat="48.35476" lon="-2.57207"></trkpt>
      <trkpt lat="48.35553" lon="-2.57053"></trkpt>
      <trkpt lat="48.35644" lon="-2.56935"></trkpt>
      <trkpt lat="48.35656" lon="-2.5656"></trkpt>
      <trkpt lat="48.35729" lon="-2.56083"></trkpt>
      <trkpt lat="48.35745" lon="-2.55815"></trkpt>
      <trkpt lat="48.35678" lon="-2.55599"></trkpt>
      <trkpt lat="48.35584" lon="-2.55406"></trkpt>
      <trkpt lat="48.35537" lon="-2.55113"></trkpt>
      <trkpt lat="48.35494" lon="-2.54977"></trkpt>
      <trkpt lat="48.35435" lon="-2.54987"></trkpt>
      <trkpt lat="48.35342" lon="-2.54946"></trkpt>
      <trkpt lat="48.35218" lon="-2.54936"></trkpt>
      <trkpt lat="48.34821" lon="-2.55063"></trkpt>
      <trkpt lat="48.34434" lon="-2.55006"></trkpt>
      <trkpt lat="48.34273" lon="-2.55085"></trkpt>
      <trkpt lat="48.33937" lon="-2.55146"></trkpt>
      <trkpt lat="48.3367" lon="-2.55659"></trkpt>
      <trkpt lat="48.33561" lon="-2.55696"></trkpt>
      <trkpt lat="48.33402" lon="-2.55622"></trkpt>
      <trkpt lat="48.33338" lon="-2.5563"></trkpt>
      <trkpt lat="48.33228" lon="-2.55718"></trkpt>
      <trkpt lat="48.33096" lon="-2.55916"></trkpt>
      <trkpt lat="48.33055" lon="-2.56029"></trkpt>
      <trkpt lat="48.33045" lon="-2.56115"></trkpt>
      <trkpt lat="48.32975" lon="-2.56176"></trkpt>
      <trkpt lat="48.33051" lon="-2.56306"></trkpt>
      <trkpt lat="48.33121" lon="-2.56515"></trkpt>
      <trkpt lat="48.3309" lon="-2.56587"></trkpt>
      <trkpt lat="48.32841" lon="-2.56704"></trkpt>
      <trkpt lat="48.32782" lon="-2.56968"></trkpt>
      <trkpt lat="48.32611" lon="-2.57373"></trkpt>
      <trkpt lat="48.32541" lon="-2.57897"></trkpt>
      <trkpt lat="48.32346" lon="-2.57972"></trkpt>
      <trkpt lat="48.32298" lon="-2.58022"></trkpt>
      <trkpt lat="48.32273" lon="-2.58088"></trkpt>
      <trkpt lat="48.32269" lon="-2.58182"></trkpt>
      <trkpt lat="48.32294" lon="-2.58282"></trkpt>
      <trkpt lat="48.32235" lon="-2.58337"></trkpt>
      <trkpt lat="48.32386" lon="-2.58765"></trkpt>
      <trkpt lat="48.324" lon="-2.58922"></trkpt>
      <trkpt lat="48.32235" lon="-2.58937"></trkpt>
      <trkpt lat="48.32162" lon="-2.58974"></trkpt>
      <trkpt lat="48.32139" lon="-2.59019"></trkpt>
      <trkpt lat="48.31658" lon="-2.61351"></trkpt>
      <trkpt lat="48.31634" lon="-2.6143"></trkpt>
      <trkpt lat="48.31556" lon="-2.61552"></trkpt>
      <trkpt lat="48.31588" lon="-2.61597"></trkpt>
      <trkpt lat="48.31677" lon="-2.61836"></trkpt>
      <trkpt lat="48.31801" lon="-2.62038"></trkpt>
      <trkpt lat="48.31829" lon="-2.62338"></trkpt>
      <trkpt lat="48.32087" lon="-2.62913"></trkpt>
      <trkpt lat="48.32145" lon="-2.62971"></trkpt>
      <trkpt lat="48.32298" lon="-2.63037"></trkpt>
      <trkpt lat="48.32497" lon="-2.63197"></trkpt>
      <trkpt lat="48.32525" lon="-2.63308"></trkpt>
      <trkpt lat="48.3256" lon="-2.63825"></trkpt>
      <trkpt lat="48.32588" lon="-2.63967"></trkpt>
      <trkpt lat="48.32545" lon="-2.64307"></trkpt>
      <trkpt lat="48.32676" lon="-2.64968"></trkpt>
      <trkpt lat="48.32677" lon="-2.65304"></trkpt>
      <trkpt lat="48.32754" lon="-2.65765"></trkpt>
      <trkpt lat="48.32804" lon="-2.65988"></trkpt>
      <trkpt lat="48.32858" lon="-2.66122"></trkpt>
      <trkpt lat="48.32909" lon="-2.66188"></trkpt>
      <trkpt lat="48.3296" lon="-2.66351"></trkpt>
      <trkpt lat="48.32972" lon="-2.66561"></trkpt>
      <trkpt lat="48.32946" lon="-2.66863"></trkpt>
      <trkpt lat="48.33034" lon="-2.67138"></trkpt>
      <trkpt lat="48.33069" lon="-2.67343"></trkpt>
      <trkpt lat="48.3311" lon="-2.67438"></trkpt>
      <trkpt lat="48.33125" lon="-2.67591"></trkpt>
      <trkpt lat="48.33171" lon="-2.67775"></trkpt>
      <trkpt lat="48.33271" lon="-2.68005"></trkpt>
      <trkpt lat="48.33487" lon="-2.68158"></trkpt>
      <trkpt lat="48.33545" lon="-2.68119"></trkpt>
      <trkpt lat="48.33536" lon="-2.6822"></trkpt>
      <trkpt lat="48.3358" lon="-2.68321"></trkpt>
      <trkpt lat="48.33622" lon="-2.68501"></trkpt>
      <trkpt lat="48.33583" lon="-2.68583"></trkpt>
      <trkpt lat="48.33577" lon="-2.68829"></trkpt>
      <trkpt lat="48.33554" lon="-2.6896"></trkpt>
      <trkpt lat="48.33435" lon="-2.6925"></trkpt>
      <trkpt lat="48.33366" lon="-2.69496"></trkpt>
      <trkpt lat="48.33118" lon="-2.69794"></trkpt>
      <trkpt lat="48.3302" lon="-2.70057"></trkpt>
      <trkpt lat="48.32842" lon="-2.70285"></trkpt>
      <trkpt lat="48.32656" lon="-2.70631"></trkpt>
      <trkpt lat="48.32547" lon="-2.70902"></trkpt>
      <trkpt lat="48.32407" lon="-2.71099"></trkpt>
      <trkpt lat="48.32302" lon="-2.71334"></trkpt>
      <trkpt lat="48.32228" lon="-2.71399"></trkpt>
      <trkpt lat="48.32071" lon="-2.71482"></trkpt>
      <trkpt lat="48.31944" lon="-2.71671"></trkpt>
      <trkpt lat="48.31833" lon="-2.71951"></trkpt>
      <trkpt lat="48.31875" lon="-2.72181"></trkpt>
      <trkpt lat="48.31868" lon="-2.72276"></trkpt>
      <trkpt lat="48.31687" lon="-2.72577"></trkpt>
      <trkpt lat="48.31637" lon="-2.72698"></trkpt>
      <trkpt lat="48.31545" lon="-2.73246"></trkpt>
      <trkpt lat="48.31275" lon="-2.73645"></trkpt>
      <trkpt lat="48.31001" lon="-2.74248"></trkpt>
      <trkpt lat="48.3078" lon="-2.74389"></trkpt>
      <trkpt lat="48.30664" lon="-2.74989"></trkpt>
      <trkpt lat="48.3066" lon="-2.75348"></trkpt>
      <trkpt lat="48.30604" lon="-2.75701"></trkpt>
      <trkpt lat="48.3054" lon="-2.75842"></trkpt>
      <trkpt lat="48.30363" lon="-2.76432"></trkpt>
      <trkpt lat="48.30223" lon="-2.766"></trkpt>
      <trkpt lat="48.30186" lon="-2.7677"></trkpt>
      <trkpt lat="48.30086" lon="-2.77021"></trkpt>
      <trkpt lat="48.3002" lon="-2.77337"></trkpt>
      <trkpt lat="48.29924" lon="-2.77601"></trkpt>
      <trkpt lat="48.29906" lon="-2.77755"></trkpt>
      <trkpt lat="48.3" lon="-2.78142"></trkpt>
      <trkpt lat="48.29938" lon="-2.78757"></trkpt>
      <trkpt lat="48.29458" lon="-2.79685"></trkpt>
      <trkpt lat="48.29072" lon="-2.80093"></trkpt>
      <trkpt lat="48.28849" lon="-2.80289"></trkpt>
      <trkpt lat="48.2873" lon="-2.80468"></trkpt>
      <trkpt lat="48.28512" lon="-2.80702"></trkpt>
      <trkpt lat="48.28266" lon="-2.8108"></trkpt>
      <trkpt lat="48.28217" lon="-2.81242"></trkpt>
      <trkpt lat="48.28121" lon="-2.81335"></trkpt>
      <trkpt lat="48.28036" lon="-2.81561"></trkpt>
      <trkpt lat="48.28028" lon="-2.81623"></trkpt>
      <trkpt lat="48.28076" lon="-2.81786"></trkpt>
      <trkpt lat="48.28097" lon="-2.82039"></trkpt>
      <trkpt lat="48.28084" lon="-2.82247"></trkpt>
      <trkpt lat="48.28151" lon="-2.82625"></trkpt>
      <trkpt lat="48.28156" lon="-2.82765"></trkpt>
      <trkpt lat="48.28014" lon="-2.82936"></trkpt>
      <trkpt lat="48.27368" lon="-2.84032"></trkpt>
      <trkpt lat="48.27094" lon="-2.84264"></trkpt>
      <trkpt lat="48.26985" lon="-2.84432"></trkpt>
      <trkpt lat="48.26928" lon="-2.84651"></trkpt>
      <trkpt lat="48.26736" lon="-2.85737"></trkpt>
      <trkpt lat="48.26624" lon="-2.8607"></trkpt>
      <trkpt lat="48.26552" lon="-2.86205"></trkpt>
      <trkpt lat="48.26106" lon="-2.86861"></trkpt>
      <trkpt lat="48.25953" lon="-2.87043"></trkpt>
      <trkpt lat="48.25011" lon="-2.87616"></trkpt>
      <trkpt lat="48.24793" lon="-2.87715"></trkpt>
      <trkpt lat="48.24534" lon="-2.87954"></trkpt>
      <trkpt lat="48.2431" lon="-2.88299"></trkpt>
      <trkpt lat="48.24243" lon="-2.88306"></trkpt>
      <trkpt lat="48.24153" lon="-2.88216"></trkpt>
      <trkpt lat="48.24071" lon="-2.88255"></trkpt>
      <trkpt lat="48.24039" lon="-2.88196"></trkpt>
      <trkpt lat="48.24018" lon="-2.88211"></trkpt>
      <trkpt lat="48.24041" lon="-2.88248"></trkpt>
      <trkpt lat="48.24083" lon="-2.88252"></trkpt>
      <trkpt lat="48.24056" lon="-2.88385"></trkpt>
      <trkpt lat="48.24106" lon="-2.88395"></trkpt>
      <trkpt lat="48.24294" lon="-2.88711"></trkpt>
      <trkpt lat="48.24481" lon="-2.89084"></trkpt>
      <trkpt lat="48.24662" lon="-2.89501"></trkpt>
      <trkpt lat="48.2479" lon="-2.89648"></trkpt>
      <trkpt lat="48.24815" lon="-2.8963"></trkpt>
      <trkpt lat="48.24837" lon="-2.89535"></trkpt>
      <trkpt lat="48.24869" lon="-2.89522"></trkpt>
      <trkpt lat="48.24872" lon="-2.89637"></trkpt>
      <trkpt lat="48.24952" lon="-2.89753"></trkpt>
      <trkpt lat="48.25023" lon="-2.89826"></trkpt>
      <trkpt lat="48.25154" lon="-2.89887"></trkpt>
      <trkpt lat="48.25209" lon="-2.89942"></trkpt>
      <trkpt lat="48.25353" lon="-2.90232"></trkpt>
      <trkpt lat="48.25508" lon="-2.90365"></trkpt>
      <trkpt lat="48.25575" lon="-2.90648"></trkpt>
      <trkpt lat="48.25648" lon="-2.90638"></trkpt>
      <trkpt lat="48.25726" lon="-2.90521"></trkpt>
      <trkpt lat="48.25874" lon="-2.90405"></trkpt>
      <trkpt lat="48.25989" lon="-2.90535"></trkpt>
      <trkpt lat="48.26047" lon="-2.90724"></trkpt>
      <trkpt lat="48.26161" lon="-2.90694"></trkpt>
      <trkpt lat="48.26252" lon="-2.90732"></trkpt>
      <trkpt lat="48.26362" lon="-2.90673"></trkpt>
      <trkpt lat="48.26422" lon="-2.90505"></trkpt>
      <trkpt lat="48.26455" lon="-2.90562"></trkpt>
      <trkpt lat="48.26588" lon="-2.90545"></trkpt>
      <trkpt lat="48.2664" lon="-2.90496"></trkpt>
      <trkpt lat="48.26688" lon="-2.90381"></trkpt>
      <trkpt lat="48.26731" lon="-2.90337"></trkpt>
      <trkpt lat="48.27128" lon="-2.90207"></trkpt>
      <trkpt lat="48.27353" lon="-2.90061"></trkpt>
      <trkpt lat="48.27561" lon="-2.90024"></trkpt>
      <trkpt lat="48.27756" lon="-2.89902"></trkpt>
      <trkpt lat="48.27732" lon="-2.90012"></trkpt>
      <trkpt lat="48.27755" lon="-2.90204"></trkpt>
      <trkpt lat="48.27965" lon="-2.9039"></trkpt>
      <trkpt lat="48.2807" lon="-2.90794"></trkpt>
      <trkpt lat="48.28462" lon="-2.91265"></trkpt>
      <trkpt lat="48.28491" lon="-2.91393"></trkpt>
      <trkpt lat="48.28561" lon="-2.91515"></trkpt>
      <trkpt lat="48.28712" lon="-2.91907"></trkpt>
      <trkpt lat="48.28861" lon="-2.91975"></trkpt>
      <trkpt lat="48.28949" lon="-2.91972"></trkpt>
      <trkpt lat="48.29" lon="-2.91943"></trkpt>
      <trkpt lat="48.29043" lon="-2.91883"></trkpt>
      <trkpt lat="48.29087" lon="-2.91758"></trkpt>
      <trkpt lat="48.29162" lon="-2.91687"></trkpt>
      <trkpt lat="48.29216" lon="-2.91422"></trkpt>
      <trkpt lat="48.29372" lon="-2.91048"></trkpt>
      <trkpt lat="48.29408" lon="-2.9079"></trkpt>
      <trkpt lat="48.29439" lon="-2.90743"></trkpt>
      <trkpt lat="48.29528" lon="-2.90738"></trkpt>
      <trkpt lat="48.29606" lon="-2.90791"></trkpt>
      <trkpt lat="48.29624" lon="-2.9097"></trkpt>
      <trkpt lat="48.29744" lon="-2.91112"></trkpt>
      <trkpt lat="48.29865" lon="-2.91046"></trkpt>
      <trkpt lat="48.29971" lon="-2.91043"></trkpt>
      <trkpt lat="48.30117" lon="-2.90949"></trkpt>
      <trkpt lat="48.30116" lon="-2.90818"></trkpt>
      <trkpt lat="48.29949" lon="-2.90291"></trkpt>
      <trkpt lat="48.29933" lon="-2.90071"></trkpt>
      <trkpt lat="48.29958" lon="-2.89963"></trkpt>
      <trkpt lat="48.30149" lon="-2.89774"></trkpt>
      <trkpt lat="48.30172" lon="-2.89849"></trkpt>
      <trkpt lat="48.30169" lon="-2.8993"></trkpt>
      <trkpt lat="48.30106" lon="-2.90023"></trkpt>
      <trkpt lat="48.3012" lon="-2.90076"></trkpt>
      <trkpt lat="48.30099" lon="-2.90132"></trkpt>
      <trkpt lat="48.3004" lon="-2.9015"></trkpt>
      <trkpt lat="48.30099" lon="-2.90132"></trkpt>
      <trkpt lat="48.3012" lon="-2.90076"></trkpt>
      <trkpt lat="48.30106" lon="-2.90023"></trkpt>
      <trkpt lat="48.30169" lon="-2.8993"></trkpt>
      <trkpt lat="48.30172" lon="-2.89849"></trkpt>
      <trkpt lat="48.30149" lon="-2.89774"></trkpt>
      <trkpt lat="48.29958" lon="-2.89963"></trkpt>
      <trkpt lat="48.29933" lon="-2.90071"></trkpt>
      <trkpt lat="48.29949" lon="-2.90291"></trkpt>
      <trkpt lat="48.30116" lon="-2.90818"></trkpt>
      <trkpt lat="48.30117" lon="-2.90949"></trkpt>
      <trkpt lat="48.3038" lon="-2.91"></trkpt>
      <trkpt lat="48.30534" lon="-2.91085"></trkpt>
      <trkpt lat="48.30581" lon="-2.91012"></trkpt>
      <trkpt lat="48.30601" lon="-2.91019"></trkpt>
      <trkpt lat="48.30631" lon="-2.91102"></trkpt>
      <trkpt lat="48.30613" lon="-2.91199"></trkpt>
      <trkpt lat="48.30624" lon="-2.91235"></trkpt>
      <trkpt lat="48.30688" lon="-2.91196"></trkpt>
      <trkpt lat="48.30867" lon="-2.91404"></trkpt>
      <trkpt lat="48.30971" lon="-2.91437"></trkpt>
      <trkpt lat="48.31012" lon="-2.91487"></trkpt>
      <trkpt lat="48.31058" lon="-2.91502"></trkpt>
      <trkpt lat="48.31144" lon="-2.91708"></trkpt>
      <trkpt lat="48.31156" lon="-2.91878"></trkpt>
      <trkpt lat="48.31234" lon="-2.91921"></trkpt>
      <trkpt lat="48.31289" lon="-2.92033"></trkpt>
      <trkpt lat="48.31418" lon="-2.9219"></trkpt>
      <trkpt lat="48.31481" lon="-2.92411"></trkpt>
      <trkpt lat="48.3151" lon="-2.9272"></trkpt>
      <trkpt lat="48.3163" lon="-2.92854"></trkpt>
      <trkpt lat="48.31749" lon="-2.92908"></trkpt>
      <trkpt lat="48.32104" lon="-2.93139"></trkpt>
      <trkpt lat="48.32211" lon="-2.93312"></trkpt>
      <trkpt lat="48.32168" lon="-2.93715"></trkpt>
      <trkpt lat="48.32094" lon="-2.93964"></trkpt>
      <trkpt lat="48.32034" lon="-2.94315"></trkpt>
      <trkpt lat="48.31972" lon="-2.94522"></trkpt>
      <trkpt lat="48.31975" lon="-2.94762"></trkpt>
      <trkpt lat="48.32007" lon="-2.95001"></trkpt>
      <trkpt lat="48.31916" lon="-2.95273"></trkpt>
      <trkpt lat="48.31898" lon="-2.95594"></trkpt>
      <trkpt lat="48.31798" lon="-2.95567"></trkpt>
      <trkpt lat="48.3158" lon="-2.95323"></trkpt>
      <trkpt lat="48.31536" lon="-2.95332"></trkpt>
      <trkpt lat="48.31468" lon="-2.95476"></trkpt>
      <trkpt lat="48.31349" lon="-2.95493"></trkpt>
      <trkpt lat="48.31197" lon="-2.95409"></trkpt>
      <trkpt lat="48.31026" lon="-2.95415"></trkpt>
      <trkpt lat="48.30955" lon="-2.95375"></trkpt>
      <trkpt lat="48.30792" lon="-2.9538"></trkpt>
      <trkpt lat="48.3068" lon="-2.95355"></trkpt>
      <trkpt lat="48.3067" lon="-2.95438"></trkpt>
      <trkpt lat="48.30728" lon="-2.9555"></trkpt>
      <trkpt lat="48.30713" lon="-2.95984"></trkpt>
      <trkpt lat="48.30797" lon="-2.96282"></trkpt>
      <trkpt lat="48.30791" lon="-2.96452"></trkpt>
      <trkpt lat="48.30728" lon="-2.96735"></trkpt>
      <trkpt lat="48.30745" lon="-2.97015"></trkpt>
      <trkpt lat="48.30785" lon="-2.97282"></trkpt>
      <trkpt lat="48.30764" lon="-2.97581"></trkpt>
      <trkpt lat="48.30806" lon="-2.97956"></trkpt>
      <trkpt lat="48.30871" lon="-2.98156"></trkpt>
      <trkpt lat="48.30888" lon="-2.98323"></trkpt>
      <trkpt lat="48.30984" lon="-2.98534"></trkpt>
      <trkpt lat="48.30928" lon="-2.98671"></trkpt>
      <trkpt lat="48.30861" lon="-2.98745"></trkpt>
      <trkpt lat="48.30825" lon="-2.98879"></trkpt>
      <trkpt lat="48.30774" lon="-2.98927"></trkpt>
      <trkpt lat="48.30588" lon="-2.99208"></trkpt>
      <trkpt lat="48.30242" lon="-2.99523"></trkpt>
      <trkpt lat="48.3012" lon="-2.9968"></trkpt>
      <trkpt lat="48.30047" lon="-2.9969"></trkpt>
      <trkpt lat="48.29881" lon="-2.99611"></trkpt>
      <trkpt lat="48.29846" lon="-2.9962"></trkpt>
      <trkpt lat="48.29562" lon="-2.99933"></trkpt>
      <trkpt lat="48.29528" lon="-2.99948"></trkpt>
      <trkpt lat="48.29443" lon="-2.99885"></trkpt>
      <trkpt lat="48.29304" lon="-3.00117"></trkpt>
      <trkpt lat="48.29131" lon="-3.00215"></trkpt>
      <trkpt lat="48.29094" lon="-3.00323"></trkpt>
      <trkpt lat="48.28798" lon="-3.00409"></trkpt>
      <trkpt lat="48.28676" lon="-3.00566"></trkpt>
      <trkpt lat="48.28558" lon="-3.00666"></trkpt>
      <trkpt lat="48.28505" lon="-3.0068"></trkpt>
      <trkpt lat="48.28392" lon="-3.00659"></trkpt>
      <trkpt lat="48.28283" lon="-3.00593"></trkpt>
      <trkpt lat="48.28064" lon="-3.00554"></trkpt>
      <trkpt lat="48.27928" lon="-3.00957"></trkpt>
      <trkpt lat="48.27891" lon="-3.01022"></trkpt>
      <trkpt lat="48.27712" lon="-3.01191"></trkpt>
      <trkpt lat="48.27605" lon="-3.01246"></trkpt>
      <trkpt lat="48.27503" lon="-3.01335"></trkpt>
      <trkpt lat="48.27481" lon="-3.01312"></trkpt>
      <trkpt lat="48.27353" lon="-3.01301"></trkpt>
      <trkpt lat="48.27186" lon="-3.01336"></trkpt>
      <trkpt lat="48.27083" lon="-3.01204"></trkpt>
      <trkpt lat="48.26783" lon="-3.01319"></trkpt>
      <trkpt lat="48.26607" lon="-3.01297"></trkpt>
      <trkpt lat="48.26485" lon="-3.01314"></trkpt>
      <trkpt lat="48.26439" lon="-3.01274"></trkpt>
      <trkpt lat="48.26397" lon="-3.01139"></trkpt>
      <trkpt lat="48.26317" lon="-3.0101"></trkpt>
      <trkpt lat="48.26038" lon="-3.01016"></trkpt>
      <trkpt lat="48.25832" lon="-3.00934"></trkpt>
      <trkpt lat="48.25582" lon="-3.00573"></trkpt>
      <trkpt lat="48.25505" lon="-3.00814"></trkpt>
      <trkpt lat="48.25435" lon="-3.00704"></trkpt>
      <trkpt lat="48.25291" lon="-3.00682"></trkpt>
      <trkpt lat="48.25435" lon="-3.00704"></trkpt>
      <trkpt lat="48.25498" lon="-3.00815"></trkpt>
      <trkpt lat="48.25356" lon="-3.00903"></trkpt>
      <trkpt lat="48.25243" lon="-3.0115"></trkpt>
      <trkpt lat="48.25103" lon="-3.01686"></trkpt>
      <trkpt lat="48.24947" lon="-3.02031"></trkpt>
      <trkpt lat="48.24889" lon="-3.0235"></trkpt>
      <trkpt lat="48.24687" lon="-3.02768"></trkpt>
      <trkpt lat="48.24508" lon="-3.02841"></trkpt>
      <trkpt lat="48.24409" lon="-3.03026"></trkpt>
      <trkpt lat="48.2439" lon="-3.03097"></trkpt>
      <trkpt lat="48.24312" lon="-3.03201"></trkpt>
      <trkpt lat="48.24206" lon="-3.03243"></trkpt>
      <trkpt lat="48.24059" lon="-3.03243"></trkpt>
      <trkpt lat="48.24023" lon="-3.03367"></trkpt>
      <trkpt lat="48.23938" lon="-3.03464"></trkpt>
      <trkpt lat="48.23886" lon="-3.03506"></trkpt>
      <trkpt lat="48.23798" lon="-3.035"></trkpt>
      <trkpt lat="48.23769" lon="-3.03679"></trkpt>
      <trkpt lat="48.23674" lon="-3.03773"></trkpt>
      <trkpt lat="48.23651" lon="-3.03871"></trkpt>
      <trkpt lat="48.23493" lon="-3.0376"></trkpt>
      <trkpt lat="48.22834" lon="-3.03728"></trkpt>
      <trkpt lat="48.22518" lon="-3.03466"></trkpt>
      <trkpt lat="48.22212" lon="-3.03796"></trkpt>
      <trkpt lat="48.22027" lon="-3.03953"></trkpt>
      <trkpt lat="48.21947" lon="-3.04065"></trkpt>
      <trkpt lat="48.21734" lon="-3.04258"></trkpt>
      <trkpt lat="48.21629" lon="-3.04419"></trkpt>
      <trkpt lat="48.21554" lon="-3.04385"></trkpt>
      <trkpt lat="48.2143" lon="-3.04624"></trkpt>
      <trkpt lat="48.21321" lon="-3.04597"></trkpt>
      <trkpt lat="48.21333" lon="-3.05084"></trkpt>
      <trkpt lat="48.21322" lon="-3.05153"></trkpt>
      <trkpt lat="48.21263" lon="-3.05253"></trkpt>
      <trkpt lat="48.21117" lon="-3.05153"></trkpt>
      <trkpt lat="48.21066" lon="-3.05092"></trkpt>
      <trkpt lat="48.20956" lon="-3.05164"></trkpt>
      <trkpt lat="48.20902" lon="-3.05161"></trkpt>
      <trkpt lat="48.20767" lon="-3.05053"></trkpt>
      <trkpt lat="48.20684" lon="-3.04921"></trkpt>
      <trkpt lat="48.20622" lon="-3.04955"></trkpt>
      <trkpt lat="48.20603" lon="-3.04855"></trkpt>
      <trkpt lat="48.20551" lon="-3.04749"></trkpt>
      <trkpt lat="48.20553" lon="-3.04676"></trkpt>
      <trkpt lat="48.20632" lon="-3.0462"></trkpt>
      <trkpt lat="48.20682" lon="-3.04728"></trkpt>
      <trkpt lat="48.20684" lon="-3.04921"></trkpt>
      <trkpt lat="48.20622" lon="-3.04955"></trkpt>
      <trkpt lat="48.20771" lon="-3.05279"></trkpt>
      <trkpt lat="48.20864" lon="-3.05382"></trkpt>
      <trkpt lat="48.21063" lon="-3.05394"></trkpt>
      <trkpt lat="48.21117" lon="-3.05448"></trkpt>
      <trkpt lat="48.21311" lon="-3.06255"></trkpt>
      <trkpt lat="48.21342" lon="-3.06321"></trkpt>
      <trkpt lat="48.21497" lon="-3.06472"></trkpt>
      <trkpt lat="48.21814" lon="-3.06583"></trkpt>
      <trkpt lat="48.21786" lon="-3.06289"></trkpt>
      <trkpt lat="48.21839" lon="-3.05824"></trkpt>
      <trkpt lat="48.21829" lon="-3.054"></trkpt>
      <trkpt lat="48.2174" lon="-3.05105"></trkpt>
      <trkpt lat="48.21622" lon="-3.04446"></trkpt>
      <trkpt lat="48.21629" lon="-3.04268"></trkpt>
      <trkpt lat="48.2168" lon="-3.03977"></trkpt>
      <trkpt lat="48.21621" lon="-3.03728"></trkpt>
      <trkpt lat="48.21629" lon="-3.03398"></trkpt>
      <trkpt lat="48.21572" lon="-3.03148"></trkpt>
      <trkpt lat="48.21544" lon="-3.03099"></trkpt>
      <trkpt lat="48.21546" lon="-3.02822"></trkpt>
      <trkpt lat="48.21512" lon="-3.02615"></trkpt>
      <trkpt lat="48.2144" lon="-3.02498"></trkpt>
      <trkpt lat="48.21449" lon="-3.02259"></trkpt>
      <trkpt lat="48.21437" lon="-3.02125"></trkpt>
      <trkpt lat="48.21302" lon="-3.01828"></trkpt>
      <trkpt lat="48.21355" lon="-3.01665"></trkpt>
      <trkpt lat="48.21361" lon="-3.01554"></trkpt>
      <trkpt lat="48.21288" lon="-3.0126"></trkpt>
      <trkpt lat="48.21228" lon="-3.0092"></trkpt>
      <trkpt lat="48.21091" lon="-3.01013"></trkpt>
      <trkpt lat="48.21061" lon="-3.01061"></trkpt>
      <trkpt lat="48.20975" lon="-3.01025"></trkpt>
      <trkpt lat="48.2089" lon="-3.00821"></trkpt>
      <trkpt lat="48.20445" lon="-3.00256"></trkpt>
      <trkpt lat="48.20408" lon="-3.00072"></trkpt>
      <trkpt lat="48.20192" lon="-3.00029"></trkpt>
      <trkpt lat="48.20058" lon="-3.00047"></trkpt>
      <trkpt lat="48.20011" lon="-3.00007"></trkpt>
      <trkpt lat="48.19742" lon="-3.00355"></trkpt>
      <trkpt lat="48.19708" lon="-3.00643"></trkpt>
      <trkpt lat="48.19614" lon="-3.00724"></trkpt>
      <trkpt lat="48.19574" lon="-3.00852"></trkpt>
      <trkpt lat="48.19462" lon="-3.00899"></trkpt>
      <trkpt lat="48.19293" lon="-3.009"></trkpt>
      <trkpt lat="48.19085" lon="-3.00977"></trkpt>
      <trkpt lat="48.18846" lon="-3.0132"></trkpt>
      <trkpt lat="48.18949" lon="-3.01482"></trkpt>
      <trkpt lat="48.19004" lon="-3.01726"></trkpt>
      <trkpt lat="48.19089" lon="-3.01899"></trkpt>
      <trkpt lat="48.19133" lon="-3.01952"></trkpt>
      <trkpt lat="48.19274" lon="-3.02007"></trkpt>
      <trkpt lat="48.19355" lon="-3.01935"></trkpt>
      <trkpt lat="48.19274" lon="-3.02007"></trkpt>
      <trkpt lat="48.19112" lon="-3.01934"></trkpt>
      <trkpt lat="48.1895" lon="-3.01617"></trkpt>
      <trkpt lat="48.18762" lon="-3.01341"></trkpt>
      <trkpt lat="48.18674" lon="-3.01252"></trkpt>
      <trkpt lat="48.1835" lon="-3.01059"></trkpt>
      <trkpt lat="48.18163" lon="-3.01052"></trkpt>
      <trkpt lat="48.17734" lon="-3.00971"></trkpt>
      <trkpt lat="48.17568" lon="-3.00863"></trkpt>
      <trkpt lat="48.17552" lon="-3.00924"></trkpt>
      <trkpt lat="48.17581" lon="-3.01287"></trkpt>
      <trkpt lat="48.1776" lon="-3.01389"></trkpt>
      <trkpt lat="48.17982" lon="-3.01287"></trkpt>
      <trkpt lat="48.18179" lon="-3.01329"></trkpt>
      <trkpt lat="48.18113" lon="-3.01919"></trkpt>
      <trkpt lat="48.18212" lon="-3.02722"></trkpt>
      <trkpt lat="48.18255" lon="-3.0282"></trkpt>
      <trkpt lat="48.18287" lon="-3.02986"></trkpt>
      <trkpt lat="48.18298" lon="-3.03232"></trkpt>
      <trkpt lat="48.18434" lon="-3.03755"></trkpt>
      <trkpt lat="48.18536" lon="-3.0437"></trkpt>
      <trkpt lat="48.18692" lon="-3.04698"></trkpt>
      <trkpt lat="48.18884" lon="-3.04842"></trkpt>
      <trkpt lat="48.18898" lon="-3.04929"></trkpt>
      <trkpt lat="48.18884" lon="-3.05104"></trkpt>
      <trkpt lat="48.1895" lon="-3.05289"></trkpt>
      <trkpt lat="48.19128" lon="-3.05466"></trkpt>
      <trkpt lat="48.19344" lon="-3.05589"></trkpt>
      <trkpt lat="48.19377" lon="-3.05661"></trkpt>
      <trkpt lat="48.19354" lon="-3.0611"></trkpt>
      <trkpt lat="48.19215" lon="-3.07054"></trkpt>
      <trkpt lat="48.19238" lon="-3.07459"></trkpt>
      <trkpt lat="48.19281" lon="-3.07665"></trkpt>
      <trkpt lat="48.19407" lon="-3.07509"></trkpt>
      <trkpt lat="48.19662" lon="-3.07446"></trkpt>
      <trkpt lat="48.19706" lon="-3.07388"></trkpt>
      <trkpt lat="48.19758" lon="-3.07178"></trkpt>
      <trkpt lat="48.19813" lon="-3.07086"></trkpt>
      <trkpt lat="48.19879" lon="-3.07035"></trkpt>
      <trkpt lat="48.20173" lon="-3.06904"></trkpt>
      <trkpt lat="48.20241" lon="-3.06777"></trkpt>
      <trkpt lat="48.20318" lon="-3.06725"></trkpt>
      <trkpt lat="48.20241" lon="-3.06777"></trkpt>
      <trkpt lat="48.20173" lon="-3.06904"></trkpt>
      <trkpt lat="48.19879" lon="-3.07035"></trkpt>
      <trkpt lat="48.19813" lon="-3.07086"></trkpt>
      <trkpt lat="48.19758" lon="-3.07178"></trkpt>
      <trkpt lat="48.19706" lon="-3.07388"></trkpt>
      <trkpt lat="48.19662" lon="-3.07446"></trkpt>
      <trkpt lat="48.19407" lon="-3.07509"></trkpt>
      <trkpt lat="48.19281" lon="-3.07665"></trkpt>
      <trkpt lat="48.19444" lon="-3.08428"></trkpt>
      <trkpt lat="48.19371" lon="-3.08898"></trkpt>
      <trkpt lat="48.19374" lon="-3.08966"></trkpt>
      <trkpt lat="48.19665" lon="-3.11387"></trkpt>
      <trkpt lat="48.19755" lon="-3.11575"></trkpt>
      <trkpt lat="48.19957" lon="-3.11871"></trkpt>
      <trkpt lat="48.19949" lon="-3.11921"></trkpt>
      <trkpt lat="48.19993" lon="-3.12301"></trkpt>
      <trkpt lat="48.19911" lon="-3.12508"></trkpt>
      <trkpt lat="48.19941" lon="-3.12655"></trkpt>
      <trkpt lat="48.19959" lon="-3.12668"></trkpt>
      <trkpt lat="48.19986" lon="-3.12946"></trkpt>
      <trkpt lat="48.19937" lon="-3.1306"></trkpt>
      <trkpt lat="48.19985" lon="-3.12967"></trkpt>
      <trkpt lat="48.19959" lon="-3.12668"></trkpt>
      <trkpt lat="48.20036" lon="-3.12677"></trkpt>
      <trkpt lat="48.20056" lon="-3.1265"></trkpt>
      <trkpt lat="48.20111" lon="-3.1282"></trkpt>
      <trkpt lat="48.20263" lon="-3.12919"></trkpt>
      <trkpt lat="48.20359" lon="-3.1308"></trkpt>
      <trkpt lat="48.20394" lon="-3.13201"></trkpt>
      <trkpt lat="48.20516" lon="-3.13461"></trkpt>
      <trkpt lat="48.20544" lon="-3.13574"></trkpt>
      <trkpt lat="48.2048" lon="-3.13822"></trkpt>
      <trkpt lat="48.20503" lon="-3.14305"></trkpt>
      <trkpt lat="48.20537" lon="-3.14308"></trkpt>
      <trkpt lat="48.20591" lon="-3.14258"></trkpt>
      <trkpt lat="48.20909" lon="-3.13739"></trkpt>
      <trkpt lat="48.21174" lon="-3.13457"></trkpt>
      <trkpt lat="48.21231" lon="-3.13168"></trkpt>
      <trkpt lat="48.21162" lon="-3.13008"></trkpt>
      <trkpt lat="48.21201" lon="-3.13006"></trkpt>
      <trkpt lat="48.21325" lon="-3.12823"></trkpt>
      <trkpt lat="48.21212" lon="-3.12753"></trkpt>
      <trkpt lat="48.21325" lon="-3.12823"></trkpt>
      <trkpt lat="48.21477" lon="-3.12651"></trkpt>
      <trkpt lat="48.21488" lon="-3.12754"></trkpt>
      <trkpt lat="48.21584" lon="-3.12641"></trkpt>
      <trkpt lat="48.21653" lon="-3.12497"></trkpt>
      <trkpt lat="48.21736" lon="-3.124"></trkpt>
      <trkpt lat="48.21839" lon="-3.12359"></trkpt>
      <trkpt lat="48.22036" lon="-3.12351"></trkpt>
      <trkpt lat="48.22246" lon="-3.12087"></trkpt>
      <trkpt lat="48.22258" lon="-3.1205"></trkpt>
      <trkpt lat="48.22249" lon="-3.11992"></trkpt>
      <trkpt lat="48.22164" lon="-3.11798"></trkpt>
      <trkpt lat="48.22136" lon="-3.1168"></trkpt>
      <trkpt lat="48.2214" lon="-3.11627"></trkpt>
      <trkpt lat="48.22216" lon="-3.1139"></trkpt>
      <trkpt lat="48.22362" lon="-3.113"></trkpt>
      <trkpt lat="48.22433" lon="-3.11299"></trkpt>
      <trkpt lat="48.22535" lon="-3.1136"></trkpt>
      <trkpt lat="48.22656" lon="-3.11584"></trkpt>
      <trkpt lat="48.22785" lon="-3.11655"></trkpt>
      <trkpt lat="48.2282" lon="-3.117"></trkpt>
      <trkpt lat="48.22936" lon="-3.12217"></trkpt>
      <trkpt lat="48.22925" lon="-3.12307"></trkpt>
      <trkpt lat="48.22873" lon="-3.12361"></trkpt>
      <trkpt lat="48.22625" lon="-3.12327"></trkpt>
      <trkpt lat="48.22884" lon="-3.12357"></trkpt>
      <trkpt lat="48.22932" lon="-3.12286"></trkpt>
      <trkpt lat="48.22936" lon="-3.12184"></trkpt>
      <trkpt lat="48.23058" lon="-3.12189"></trkpt>
      <trkpt lat="48.23194" lon="-3.12231"></trkpt>
      <trkpt lat="48.23516" lon="-3.12197"></trkpt>
      <trkpt lat="48.23783" lon="-3.12297"></trkpt>
      <trkpt lat="48.23847" lon="-3.12407"></trkpt>
      <trkpt lat="48.23878" lon="-3.12509"></trkpt>
      <trkpt lat="48.24174" lon="-3.12362"></trkpt>
      <trkpt lat="48.24201" lon="-3.12422"></trkpt>
      <trkpt lat="48.24512" lon="-3.12653"></trkpt>
      <trkpt lat="48.24812" lon="-3.13027"></trkpt>
      <trkpt lat="48.24983" lon="-3.13126"></trkpt>
      <trkpt lat="48.25048" lon="-3.13244"></trkpt>
      <trkpt lat="48.25206" lon="-3.13411"></trkpt>
      <trkpt lat="48.25431" lon="-3.13488"></trkpt>
      <trkpt lat="48.25473" lon="-3.13524"></trkpt>
      <trkpt lat="48.25538" lon="-3.13678"></trkpt>
      <trkpt lat="48.25549" lon="-3.13814"></trkpt>
      <trkpt lat="48.25617" lon="-3.14137"></trkpt>
      <trkpt lat="48.256" lon="-3.14425"></trkpt>
      <trkpt lat="48.25536" lon="-3.14752"></trkpt>
      <trkpt lat="48.25595" lon="-3.15199"></trkpt>
      <trkpt lat="48.25595" lon="-3.15369"></trkpt>
      <trkpt lat="48.25627" lon="-3.1543"></trkpt>
      <trkpt lat="48.25856" lon="-3.15525"></trkpt>
      <trkpt lat="48.26062" lon="-3.15462"></trkpt>
      <trkpt lat="48.26301" lon="-3.15507"></trkpt>
      <trkpt lat="48.26559" lon="-3.15468"></trkpt>
      <trkpt lat="48.26785" lon="-3.15492"></trkpt>
      <trkpt lat="48.26862" lon="-3.15482"></trkpt>
      <trkpt lat="48.26914" lon="-3.15431"></trkpt>
      <trkpt lat="48.27103" lon="-3.15564"></trkpt>
      <trkpt lat="48.27422" lon="-3.15683"></trkpt>
      <trkpt lat="48.27568" lon="-3.157"></trkpt>
      <trkpt lat="48.2782" lon="-3.15661"></trkpt>
      <trkpt lat="48.28125" lon="-3.15701"></trkpt>
      <trkpt lat="48.28365" lon="-3.15922"></trkpt>
      <trkpt lat="48.28572" lon="-3.1604"></trkpt>
      <trkpt lat="48.28685" lon="-3.16036"></trkpt>
      <trkpt lat="48.29484" lon="-3.15862"></trkpt>
      <trkpt lat="48.29667" lon="-3.15849"></trkpt>
      <trkpt lat="48.29806" lon="-3.15886"></trkpt>
      <trkpt lat="48.30653" lon="-3.1628"></trkpt>
      <trkpt lat="48.30673" lon="-3.16268"></trkpt>
      <trkpt lat="48.30728" lon="-3.16322"></trkpt>
      <trkpt lat="48.30771" lon="-3.16304"></trkpt>
      <trkpt lat="48.30792" lon="-3.16345"></trkpt>
      <trkpt lat="48.31109" lon="-3.16157"></trkpt>
      <trkpt lat="48.3119" lon="-3.16323"></trkpt>
      <trkpt lat="48.31351" lon="-3.16436"></trkpt>
      <trkpt lat="48.31498" lon="-3.1619"></trkpt>
      <trkpt lat="48.31503" lon="-3.16115"></trkpt>
      <trkpt lat="48.31556" lon="-3.15987"></trkpt>
      <trkpt lat="48.31481" lon="-3.15958"></trkpt>
      <trkpt lat="48.31525" lon="-3.1599"></trkpt>
      <trkpt lat="48.31556" lon="-3.15987"></trkpt>
      <trkpt lat="48.31561" lon="-3.1596"></trkpt>
      <trkpt lat="48.31466" lon="-3.15779"></trkpt>
      <trkpt lat="48.31445" lon="-3.1569"></trkpt>
      <trkpt lat="48.31554" lon="-3.15244"></trkpt>
      <trkpt lat="48.31489" lon="-3.15011"></trkpt>
      <trkpt lat="48.31477" lon="-3.14643"></trkpt>
      <trkpt lat="48.31446" lon="-3.14612"></trkpt>
      <trkpt lat="48.31585" lon="-3.13558"></trkpt>
      <trkpt lat="48.31591" lon="-3.13369"></trkpt>
      <trkpt lat="48.3151" lon="-3.12731"></trkpt>
      <trkpt lat="48.31434" lon="-3.12311"></trkpt>
      <trkpt lat="48.31432" lon="-3.11989"></trkpt>
      <trkpt lat="48.31568" lon="-3.11264"></trkpt>
      <trkpt lat="48.31765" lon="-3.09688"></trkpt>
      <trkpt lat="48.31861" lon="-3.09327"></trkpt>
      <trkpt lat="48.31924" lon="-3.0887"></trkpt>
      <trkpt lat="48.32111" lon="-3.08137"></trkpt>
      <trkpt lat="48.32122" lon="-3.08037"></trkpt>
      <trkpt lat="48.32095" lon="-3.07705"></trkpt>
      <trkpt lat="48.31977" lon="-3.07279"></trkpt>
      <trkpt lat="48.31902" lon="-3.06794"></trkpt>
      <trkpt lat="48.31851" lon="-3.06215"></trkpt>
      <trkpt lat="48.31794" lon="-3.06065"></trkpt>
      <trkpt lat="48.31809" lon="-3.05995"></trkpt>
      <trkpt lat="48.31853" lon="-3.0592"></trkpt>
      <trkpt lat="48.31958" lon="-3.05498"></trkpt>
      <trkpt lat="48.3204" lon="-3.05496"></trkpt>
      <trkpt lat="48.32145" lon="-3.05596"></trkpt>
      <trkpt lat="48.32174" lon="-3.05637"></trkpt>
      <trkpt lat="48.32186" lon="-3.05751"></trkpt>
      <trkpt lat="48.32174" lon="-3.05637"></trkpt>
      <trkpt lat="48.32276" lon="-3.0554"></trkpt>
      <trkpt lat="48.32386" lon="-3.0537"></trkpt>
      <trkpt lat="48.32458" lon="-3.05303"></trkpt>
      <trkpt lat="48.32545" lon="-3.0527"></trkpt>
      <trkpt lat="48.3257" lon="-3.05222"></trkpt>
      <trkpt lat="48.32675" lon="-3.0514"></trkpt>
      <trkpt lat="48.32839" lon="-3.05094"></trkpt>
      <trkpt lat="48.33046" lon="-3.05149"></trkpt>
      <trkpt lat="48.33181" lon="-3.05274"></trkpt>
      <trkpt lat="48.33257" lon="-3.05295"></trkpt>
      <trkpt lat="48.33385" lon="-3.05216"></trkpt>
      <trkpt lat="48.3358" lon="-3.05166"></trkpt>
      <trkpt lat="48.3368" lon="-3.05055"></trkpt>
      <trkpt lat="48.3383" lon="-3.05002"></trkpt>
      <trkpt lat="48.33949" lon="-3.04839"></trkpt>
      <trkpt lat="48.34177" lon="-3.04778"></trkpt>
      <trkpt lat="48.34324" lon="-3.04638"></trkpt>
      <trkpt lat="48.34638" lon="-3.04579"></trkpt>
      <trkpt lat="48.34904" lon="-3.04692"></trkpt>
      <trkpt lat="48.35026" lon="-3.04782"></trkpt>
      <trkpt lat="48.35107" lon="-3.04897"></trkpt>
      <trkpt lat="48.35295" lon="-3.04955"></trkpt>
      <trkpt lat="48.35419" lon="-3.05065"></trkpt>
      <trkpt lat="48.35534" lon="-3.05088"></trkpt>
      <trkpt lat="48.3558" lon="-3.05073"></trkpt>
      <trkpt lat="48.35789" lon="-3.04892"></trkpt>
      <trkpt lat="48.36072" lon="-3.04575"></trkpt>
      <trkpt lat="48.36208" lon="-3.04375"></trkpt>
      <trkpt lat="48.36585" lon="-3.04064"></trkpt>
      <trkpt lat="48.36696" lon="-3.03922"></trkpt>
      <trkpt lat="48.3673" lon="-3.03808"></trkpt>
      <trkpt lat="48.3677" lon="-3.03746"></trkpt>
      <trkpt lat="48.36972" lon="-3.03574"></trkpt>
      <trkpt lat="48.37031" lon="-3.03557"></trkpt>
      <trkpt lat="48.37134" lon="-3.03586"></trkpt>
      <trkpt lat="48.37357" lon="-3.03684"></trkpt>
      <trkpt lat="48.37448" lon="-3.0368"></trkpt>
      <trkpt lat="48.37657" lon="-3.03584"></trkpt>
      <trkpt lat="48.37741" lon="-3.03419"></trkpt>
      <trkpt lat="48.37868" lon="-3.03235"></trkpt>
      <trkpt lat="48.37961" lon="-3.02962"></trkpt>
      <trkpt lat="48.38217" lon="-3.02588"></trkpt>
      <trkpt lat="48.38574" lon="-3.0192"></trkpt>
      <trkpt lat="48.38814" lon="-3.01545"></trkpt>
      <trkpt lat="48.3883" lon="-3.01206"></trkpt>
      <trkpt lat="48.39004" lon="-3.00908"></trkpt>
      <trkpt lat="48.39043" lon="-3.00464"></trkpt>
      <trkpt lat="48.39047" lon="-3.00221"></trkpt>
      <trkpt lat="48.39073" lon="-3.00043"></trkpt>
      <trkpt lat="48.39011" lon="-2.99613"></trkpt>
      <trkpt lat="48.38927" lon="-2.99308"></trkpt>
      <trkpt lat="48.38852" lon="-2.98867"></trkpt>
      <trkpt lat="48.38893" lon="-2.98603"></trkpt>
      <trkpt lat="48.3889" lon="-2.97987"></trkpt>
      <trkpt lat="48.38908" lon="-2.97794"></trkpt>
      <trkpt lat="48.38816" lon="-2.9735"></trkpt>
      <trkpt lat="48.38852" lon="-2.97024"></trkpt>
      <trkpt lat="48.38838" lon="-2.96823"></trkpt>
      <trkpt lat="48.38865" lon="-2.9673"></trkpt>
      <trkpt lat="48.39016" lon="-2.9646"></trkpt>
      <trkpt lat="48.39083" lon="-2.96281"></trkpt>
      <trkpt lat="48.39136" lon="-2.95916"></trkpt>
      <trkpt lat="48.39402" lon="-2.95067"></trkpt>
      <trkpt lat="48.3942" lon="-2.94614"></trkpt>
      <trkpt lat="48.39569" lon="-2.94022"></trkpt>
      <trkpt lat="48.39626" lon="-2.93879"></trkpt>
      <trkpt lat="48.39823" lon="-2.93582"></trkpt>
      <trkpt lat="48.39845" lon="-2.93497"></trkpt>
      <trkpt lat="48.39863" lon="-2.93248"></trkpt>
      <trkpt lat="48.39896" lon="-2.93228"></trkpt>
      <trkpt lat="48.39994" lon="-2.93245"></trkpt>
      <trkpt lat="48.40139" lon="-2.93126"></trkpt>
      <trkpt lat="48.40204" lon="-2.93029"></trkpt>
      <trkpt lat="48.40259" lon="-2.92816"></trkpt>
      <trkpt lat="48.4034" lon="-2.92078"></trkpt>
      <trkpt lat="48.40278" lon="-2.91839"></trkpt>
      <trkpt lat="48.40315" lon="-2.91249"></trkpt>
      <trkpt lat="48.40248" lon="-2.91217"></trkpt>
      <trkpt lat="48.40185" lon="-2.91149"></trkpt>
      <trkpt lat="48.40232" lon="-2.911"></trkpt>
      <trkpt lat="48.40253" lon="-2.90978"></trkpt>
      <trkpt lat="48.40333" lon="-2.91012"></trkpt>
      <trkpt lat="48.40334" lon="-2.9099"></trkpt>
      <trkpt lat="48.40398" lon="-2.91001"></trkpt>
      <trkpt lat="48.40401" lon="-2.91086"></trkpt>
      <trkpt lat="48.40463" lon="-2.91055"></trkpt>
      <trkpt lat="48.40589" lon="-2.90915"></trkpt>
      <trkpt lat="48.40616" lon="-2.90849"></trkpt>
      <trkpt lat="48.40608" lon="-2.90819"></trkpt>
      <trkpt lat="48.40676" lon="-2.90825"></trkpt>
      <trkpt lat="48.40976" lon="-2.9059"></trkpt>
      <trkpt lat="48.41096" lon="-2.90548"></trkpt>
      <trkpt lat="48.41217" lon="-2.9036"></trkpt>
      <trkpt lat="48.41307" lon="-2.9029"></trkpt>
      <trkpt lat="48.41466" lon="-2.90188"></trkpt>
      <trkpt lat="48.41654" lon="-2.90181"></trkpt>
      <trkpt lat="48.41764" lon="-2.90141"></trkpt>
      <trkpt lat="48.41906" lon="-2.90043"></trkpt>
      <trkpt lat="48.42047" lon="-2.89895"></trkpt>
      <trkpt lat="48.41893" lon="-2.89481"></trkpt>
      <trkpt lat="48.41861" lon="-2.89162"></trkpt>
      <trkpt lat="48.41915" lon="-2.88801"></trkpt>
      <trkpt lat="48.41904" lon="-2.88705"></trkpt>
      <trkpt lat="48.4197" lon="-2.88185"></trkpt>
      <trkpt lat="48.41962" lon="-2.88079"></trkpt>
      <trkpt lat="48.41918" lon="-2.87973"></trkpt>
      <trkpt lat="48.41772" lon="-2.87799"></trkpt>
      <trkpt lat="48.41545" lon="-2.87672"></trkpt>
      <trkpt lat="48.41403" lon="-2.87534"></trkpt>
      <trkpt lat="48.41348" lon="-2.8717"></trkpt>
      <trkpt lat="48.41297" lon="-2.87026"></trkpt>
      <trkpt lat="48.41312" lon="-2.86726"></trkpt>
      <trkpt lat="48.41305" lon="-2.86376"></trkpt>
      <trkpt lat="48.41165" lon="-2.8598"></trkpt>
      <trkpt lat="48.41068" lon="-2.85863"></trkpt>
      <trkpt lat="48.40946" lon="-2.85555"></trkpt>
      <trkpt lat="48.40843" lon="-2.85465"></trkpt>
      <trkpt lat="48.40871" lon="-2.85135"></trkpt>
      <trkpt lat="48.4083" lon="-2.84596"></trkpt>
      <trkpt lat="48.40834" lon="-2.84449"></trkpt>
      <trkpt lat="48.40863" lon="-2.84293"></trkpt>
      <trkpt lat="48.40863" lon="-2.84119"></trkpt>
      <trkpt lat="48.40855" lon="-2.84055"></trkpt>
      <trkpt lat="48.40817" lon="-2.83976"></trkpt>
      <trkpt lat="48.40828" lon="-2.83724"></trkpt>
      <trkpt lat="48.40892" lon="-2.83387"></trkpt>
      <trkpt lat="48.40962" lon="-2.83271"></trkpt>
      <trkpt lat="48.40976" lon="-2.83146"></trkpt>
      <trkpt lat="48.41018" lon="-2.83059"></trkpt>
      <trkpt lat="48.41038" lon="-2.82794"></trkpt>
      <trkpt lat="48.41027" lon="-2.82756"></trkpt>
      <trkpt lat="48.4088" lon="-2.8257"></trkpt>
      <trkpt lat="48.40746" lon="-2.82486"></trkpt>
      <trkpt lat="48.40706" lon="-2.82423"></trkpt>
      <trkpt lat="48.40691" lon="-2.82318"></trkpt>
      <trkpt lat="48.40719" lon="-2.82193"></trkpt>
      <trkpt lat="48.40734" lon="-2.81897"></trkpt>
      <trkpt lat="48.40757" lon="-2.81792"></trkpt>
      <trkpt lat="48.40795" lon="-2.81729"></trkpt>
      <trkpt lat="48.40694" lon="-2.81655"></trkpt>
      <trkpt lat="48.40677" lon="-2.81524"></trkpt>
      <trkpt lat="48.40694" lon="-2.81245"></trkpt>
      <trkpt lat="48.40683" lon="-2.81146"></trkpt>
      <trkpt lat="48.40551" lon="-2.80644"></trkpt>
      <trkpt lat="48.40409" lon="-2.80404"></trkpt>
      <trkpt lat="48.40382" lon="-2.80206"></trkpt>
      <trkpt lat="48.40383" lon="-2.80042"></trkpt>
      <trkpt lat="48.40308" lon="-2.79826"></trkpt>
      <trkpt lat="48.40194" lon="-2.79389"></trkpt>
      <trkpt lat="48.40134" lon="-2.79054"></trkpt>
      <trkpt lat="48.40168" lon="-2.79007"></trkpt>
      <trkpt lat="48.40185" lon="-2.78813"></trkpt>
      <trkpt lat="48.4023" lon="-2.78678"></trkpt>
      <trkpt lat="48.4024" lon="-2.78582"></trkpt>
      <trkpt lat="48.4024" lon="-2.78301"></trkpt>
      <trkpt lat="48.40203" lon="-2.78041"></trkpt>
      <trkpt lat="48.40251" lon="-2.77936"></trkpt>
      <trkpt lat="48.40291" lon="-2.7777"></trkpt>
      <trkpt lat="48.40258" lon="-2.77616"></trkpt>
      <trkpt lat="48.40269" lon="-2.77378"></trkpt>
      <trkpt lat="48.40176" lon="-2.77214"></trkpt>
      <trkpt lat="48.40136" lon="-2.77049"></trkpt>
      <trkpt lat="48.4012" lon="-2.76886"></trkpt>
      <trkpt lat="48.40135" lon="-2.76767"></trkpt>
      <trkpt lat="48.40169" lon="-2.76629"></trkpt>
      <trkpt lat="48.40342" lon="-2.76397"></trkpt>
      <trkpt lat="48.40589" lon="-2.7622"></trkpt>
      <trkpt lat="48.40686" lon="-2.75915"></trkpt>
      <trkpt lat="48.40636" lon="-2.75623"></trkpt>
      <trkpt lat="48.40688" lon="-2.75164"></trkpt>
      <trkpt lat="48.40606" lon="-2.74897"></trkpt>
      <trkpt lat="48.40602" lon="-2.74323"></trkpt>
      <trkpt lat="48.40534" lon="-2.74181"></trkpt>
      <trkpt lat="48.40389" lon="-2.73976"></trkpt>
      <trkpt lat="48.40206" lon="-2.73889"></trkpt>
      <trkpt lat="48.40038" lon="-2.73585"></trkpt>
      <trkpt lat="48.39925" lon="-2.73259"></trkpt>
      <trkpt lat="48.39779" lon="-2.73228"></trkpt>
      <trkpt lat="48.3983" lon="-2.73086"></trkpt>
      <trkpt lat="48.39772" lon="-2.72912"></trkpt>
      <trkpt lat="48.39682" lon="-2.72765"></trkpt>
      <trkpt lat="48.39661" lon="-2.72656"></trkpt>
      <trkpt lat="48.39796" lon="-2.72652"></trkpt>
      <trkpt lat="48.39892" lon="-2.72597"></trkpt>
      <trkpt lat="48.4012" lon="-2.72236"></trkpt>
      <trkpt lat="48.40199" lon="-2.7206"></trkpt>
      <trkpt lat="48.40295" lon="-2.71769"></trkpt>
      <trkpt lat="48.40298" lon="-2.71399"></trkpt>
      <trkpt lat="48.40461" lon="-2.70936"></trkpt>
      <trkpt lat="48.40567" lon="-2.70764"></trkpt>
      <trkpt lat="48.40628" lon="-2.70602"></trkpt>
      <trkpt lat="48.40969" lon="-2.70371"></trkpt>
      <trkpt lat="48.4104" lon="-2.70351"></trkpt>
      <trkpt lat="48.41071" lon="-2.70313"></trkpt>
      <trkpt lat="48.41119" lon="-2.70175"></trkpt>
      <trkpt lat="48.41211" lon="-2.6975"></trkpt>
      <trkpt lat="48.41228" lon="-2.69527"></trkpt>
      <trkpt lat="48.4129" lon="-2.69328"></trkpt>
      <trkpt lat="48.41349" lon="-2.68784"></trkpt>
      <trkpt lat="48.41376" lon="-2.68702"></trkpt>
      <trkpt lat="48.41569" lon="-2.6845"></trkpt>
      <trkpt lat="48.41648" lon="-2.68289"></trkpt>
      <trkpt lat="48.4168" lon="-2.67937"></trkpt>
      <trkpt lat="48.41748" lon="-2.67603"></trkpt>
      <trkpt lat="48.41925" lon="-2.67249"></trkpt>
      <trkpt lat="48.41939" lon="-2.67142"></trkpt>
      <trkpt lat="48.41895" lon="-2.66937"></trkpt>
      <trkpt lat="48.41916" lon="-2.66708"></trkpt>
      <trkpt lat="48.41931" lon="-2.66622"></trkpt>
      <trkpt lat="48.41988" lon="-2.66488"></trkpt>
      <trkpt lat="48.42026" lon="-2.65986"></trkpt>
      <trkpt lat="48.42068" lon="-2.65852"></trkpt>
      <trkpt lat="48.41981" lon="-2.65478"></trkpt>
      <trkpt lat="48.41952" lon="-2.65458"></trkpt>
      <trkpt lat="48.41945" lon="-2.65277"></trkpt>
      <trkpt lat="48.41965" lon="-2.64952"></trkpt>
      <trkpt lat="48.41849" lon="-2.64508"></trkpt>
      <trkpt lat="48.41803" lon="-2.63577"></trkpt>
      <trkpt lat="48.41834" lon="-2.63402"></trkpt>
      <trkpt lat="48.42183" lon="-2.62679"></trkpt>
      <trkpt lat="48.42308" lon="-2.62518"></trkpt>
      <trkpt lat="48.42356" lon="-2.6241"></trkpt>
      <trkpt lat="48.42434" lon="-2.62356"></trkpt>
      <trkpt lat="48.42566" lon="-2.62343"></trkpt>
      <trkpt lat="48.42771" lon="-2.62116"></trkpt>
      <trkpt lat="48.42873" lon="-2.61938"></trkpt>
      <trkpt lat="48.43002" lon="-2.61794"></trkpt>
      <trkpt lat="48.43047" lon="-2.6168"></trkpt>
      <trkpt lat="48.43078" lon="-2.61422"></trkpt>
      <trkpt lat="48.43241" lon="-2.60908"></trkpt>
      <trkpt lat="48.43281" lon="-2.60859"></trkpt>
      <trkpt lat="48.43382" lon="-2.60856"></trkpt>
      <trkpt lat="48.43405" lon="-2.60825"></trkpt>
      <trkpt lat="48.43412" lon="-2.60698"></trkpt>
      <trkpt lat="48.43434" lon="-2.60669"></trkpt>
      <trkpt lat="48.4338" lon="-2.60414"></trkpt>
      <trkpt lat="48.43443" lon="-2.59984"></trkpt>
      <trkpt lat="48.43477" lon="-2.59888"></trkpt>
      <trkpt lat="48.43573" lon="-2.59742"></trkpt>
      <trkpt lat="48.43642" lon="-2.59582"></trkpt>
      <trkpt lat="48.43652" lon="-2.59498"></trkpt>
      <trkpt lat="48.43637" lon="-2.59361"></trkpt>
      <trkpt lat="48.43693" lon="-2.59224"></trkpt>
      <trkpt lat="48.43842" lon="-2.58502"></trkpt>
      <trkpt lat="48.43992" lon="-2.57948"></trkpt>
      <trkpt lat="48.44115" lon="-2.57737"></trkpt>
      <trkpt lat="48.44172" lon="-2.57444"></trkpt>
      <trkpt lat="48.44345" lon="-2.5717"></trkpt>
      <trkpt lat="48.4444" lon="-2.56972"></trkpt>
      <trkpt lat="48.44435" lon="-2.56878"></trkpt>
      <trkpt lat="48.4449" lon="-2.5682"></trkpt>
      <trkpt lat="48.44521" lon="-2.56561"></trkpt>
      <trkpt lat="48.44656" lon="-2.5622"></trkpt>
      <trkpt lat="48.44701" lon="-2.55858"></trkpt>
      <trkpt lat="48.44768" lon="-2.55611"></trkpt>
      <trkpt lat="48.44803" lon="-2.55375"></trkpt>
      <trkpt lat="48.4498" lon="-2.55399"></trkpt>
      <trkpt lat="48.45012" lon="-2.55436"></trkpt>
      <trkpt lat="48.45036" lon="-2.55553"></trkpt>
      <trkpt lat="48.45102" lon="-2.55641"></trkpt>
      <trkpt lat="48.45264" lon="-2.55689"></trkpt>
      <trkpt lat="48.4581" lon="-2.56023"></trkpt>
      <trkpt lat="48.46027" lon="-2.5605"></trkpt>
      <trkpt lat="48.461" lon="-2.56107"></trkpt>
      <trkpt lat="48.46144" lon="-2.56178"></trkpt>
      <trkpt lat="48.46322" lon="-2.55835"></trkpt>
      <trkpt lat="48.4631" lon="-2.55592"></trkpt>
      <trkpt lat="48.46406" lon="-2.55336"></trkpt>
      <trkpt lat="48.46475" lon="-2.55197"></trkpt>
      <trkpt lat="48.46574" lon="-2.55121"></trkpt>
      <trkpt lat="48.46613" lon="-2.55047"></trkpt>
      <trkpt lat="48.46701" lon="-2.54962"></trkpt>
      <trkpt lat="48.46696" lon="-2.54931"></trkpt>
      <trkpt lat="48.46717" lon="-2.54925"></trkpt>
      <trkpt lat="48.46802" lon="-2.54666"></trkpt>
      <trkpt lat="48.46901" lon="-2.54476"></trkpt>
      <trkpt lat="48.46895" lon="-2.54423"></trkpt>
      <trkpt lat="48.46974" lon="-2.54372"></trkpt>
      <trkpt lat="48.47037" lon="-2.54065"></trkpt>
      <trkpt lat="48.47189" lon="-2.53519"></trkpt>
      <trkpt lat="48.47375" lon="-2.52673"></trkpt>
      <trkpt lat="48.47436" lon="-2.52476"></trkpt>
      <trkpt lat="48.4797" lon="-2.51702"></trkpt>
      <trkpt lat="48.48064" lon="-2.51398"></trkpt>
      <trkpt lat="48.4806" lon="-2.51325"></trkpt>
      <trkpt lat="48.48091" lon="-2.51308"></trkpt>
      <trkpt lat="48.48119" lon="-2.51357"></trkpt>
      <trkpt lat="48.48137" lon="-2.51346"></trkpt>
      <trkpt lat="48.48201" lon="-2.5112"></trkpt>
      <trkpt lat="48.48313" lon="-2.5106"></trkpt>
      <trkpt lat="48.48424" lon="-2.5092"></trkpt>
      <trkpt lat="48.48546" lon="-2.50814"></trkpt>
      <trkpt lat="48.4874" lon="-2.5045"></trkpt>
      <trkpt lat="48.48816" lon="-2.50365"></trkpt>
      <trkpt lat="48.48944" lon="-2.50273"></trkpt>
      <trkpt lat="48.49063" lon="-2.50076"></trkpt>
      <trkpt lat="48.49154" lon="-2.49998"></trkpt>
      <trkpt lat="48.49453" lon="-2.49916"></trkpt>
      <trkpt lat="48.49598" lon="-2.49837"></trkpt>
      <trkpt lat="48.49756" lon="-2.49715"></trkpt>
      <trkpt lat="48.49954" lon="-2.49479"></trkpt>
      <trkpt lat="48.50029" lon="-2.49418"></trkpt>
      <trkpt lat="48.50263" lon="-2.49294"></trkpt>
      <trkpt lat="48.50708" lon="-2.48989"></trkpt>
      <trkpt lat="48.509" lon="-2.48927"></trkpt>
      <trkpt lat="48.51007" lon="-2.48824"></trkpt>
      <trkpt lat="48.51405" lon="-2.48705"></trkpt>
      <trkpt lat="48.51563" lon="-2.48717"></trkpt>
      <trkpt lat="48.51722" lon="-2.48631"></trkpt>
      <trkpt lat="48.51794" lon="-2.4865"></trkpt>
      <trkpt lat="48.51961" lon="-2.48485"></trkpt>
      <trkpt lat="48.52141" lon="-2.48455"></trkpt>
      <trkpt lat="48.52219" lon="-2.48371"></trkpt>
      <trkpt lat="48.52414" lon="-2.48267"></trkpt>
      <trkpt lat="48.52682" lon="-2.47871"></trkpt>
      <trkpt lat="48.52814" lon="-2.47747"></trkpt>
      <trkpt lat="48.53038" lon="-2.47621"></trkpt>
      <trkpt lat="48.53172" lon="-2.47637"></trkpt>
      <trkpt lat="48.53226" lon="-2.47608"></trkpt>
      <trkpt lat="48.53382" lon="-2.47347"></trkpt>
      <trkpt lat="48.53933" lon="-2.46897"></trkpt>
      <trkpt lat="48.54139" lon="-2.46628"></trkpt>
      <trkpt lat="48.543" lon="-2.46563"></trkpt>
      <trkpt lat="48.5449" lon="-2.46555"></trkpt>
      <trkpt lat="48.54555" lon="-2.4652"></trkpt>
      <trkpt lat="48.54648" lon="-2.4639"></trkpt>
      <trkpt lat="48.54453" lon="-2.4574"></trkpt>
      <trkpt lat="48.5441" lon="-2.45517"></trkpt>
      <trkpt lat="48.54391" lon="-2.45492"></trkpt>
      <trkpt lat="48.54262" lon="-2.44612"></trkpt>
      <trkpt lat="48.5429" lon="-2.44247"></trkpt>
      <trkpt lat="48.54207" lon="-2.44022"></trkpt>
      <trkpt lat="48.54178" lon="-2.43884"></trkpt>
      <trkpt lat="48.54269" lon="-2.43704"></trkpt>
      <trkpt lat="48.54375" lon="-2.43569"></trkpt>
      <trkpt lat="48.54098" lon="-2.43309"></trkpt>
    </trkseg>
  </trk>
</gpx>
